STARLINK-1610           
1 46163U 20057AY  22061.14472325  .00001544  00000+0  12254-3 0  9993
2 46163  53.0548  29.1727 0001775  63.5767 296.5404 15.06387668 85945
STARLINK-1612           
1 46164U 20057AZ  22060.41121682 -.00000052  00000+0  15431-4 0  9995
2 46164  53.0551  32.4637 0001786  63.2427 296.8745 15.06397847 86435
STARLINK-1613           
1 46165U 20057BA  22061.10195339  .00008593  00000+0  56695-3 0  9996
2 46165  53.0525  68.8275 0000548  69.1650 290.9399 15.08203820 85388
STARLINK-1615           
1 46166U 20057BB  22060.39647299  .00000825  00000+0  74301-4 0  9999
2 46166  53.0550  72.5260 0001624  65.5339 294.5819 15.06399917 84616
STARLINK-1626           
1 46167U 20057BC  22060.41121783  .00001369  00000+0  11075-3 0  9990
2 46167  53.0556  72.4775 0001823  54.2549 305.8609 15.06403408 84616
STARLINK-1627           
1 46168U 20057BD  22061.11151789  .00000812  00000+0  73429-4 0  9992
2 46168  53.0550  19.3164 0001680  63.4545 296.6616 15.06396198 86076
STARLINK-1628           
1 46169U 20057BE  22060.43700773  .00000699  00000+0  67107-4 0  9999
2 46169  53.0011  72.3367 0001599  69.5163 290.5997 15.05590110 84583
STARLINK-1633           
1 46171U 20057BG  22061.18342160 -.00000569  00000+0 -19280-4 0  9994
2 46171  53.0554  48.9941 0001971  55.2834 304.8340 15.06394325 85668
STARLINK-1635           
1 46172U 20057BH  22061.13182224  .00000452  00000+0  49271-4 0  9995
2 46172  53.0566  49.2432 0001649  57.3108 302.8040 15.06390171 85659
STARLINK-1640           
1 46173U 20057BJ  22061.11155050  .00001148  00000+0  95941-4 0  9999
2 46173  53.0553  69.3277 0001635  48.6731 311.4398 15.06393924 85376
STARLINK-1641           
1 46174U 20057BK  22060.72084014 -.00000736  00000+0 -30531-4 0  9995
2 46174  53.0557  71.0769 0001796  56.4031 303.7129 15.06393946 85319
SKYSAT-C17              
1 46179U 20057BQ  22060.83699718  .00020648  00000+0  26016-3 0  9999
2 46179  52.9947 223.8203 0005445  82.5041 277.6589 15.59605882 88451
SKYSAT-C18              
1 46180U 20057BR  22060.88972562  .00018290  00000+0  24366-3 0  9993
2 46180  52.9904 223.8747 0006348 280.9726  79.0571 15.58207729 87165
2020-058A               
1 46232U 20058A   22061.17956419  .00000717  00000+0  32851-4 0  9992
2 46232  97.4242 116.7420 0015951 116.2002 275.7934 15.23581534 84669
2020-058B               
1 46233U 20058B   22061.21505000  .00004107  00000+0  16317-3 0  9999
2 46233  97.4247 117.6422 0017073 113.8037 331.5219 15.25756289 84711
2020-058C               
1 46234U 20058C   22061.22291829  .00001793  00000+0  74531-4 0  9993
2 46234  97.4246 117.4582 0017306 113.5801 332.3360 15.24979046 84703
SKYSAT-C19              
1 46235U 20057BS  22060.71971419  .00025393  00000+0  31141-3 0  9997
2 46235  52.9910 222.8880 0006001 109.7322 250.4337 15.60179588 87165
SAOCOM 1B               
1 46265U 20059A   22061.30216166 -.00000967  00000+0 -11491-3 0  9997
2 46265  97.8867 248.5942 0001401  81.6212 278.5161 14.82143700 81256
GNOMES-1                
1 46266U 20059B   22061.11089280  .00000803  00000+0  92698-4 0  9998
2 46266  97.8826 252.8420 0006098 134.3031 225.8686 14.88352687 81500
TYVAK-0172              
1 46267U 20059C   22060.52625295  .00002237  00000+0  24196-3 0  9995
2 46267  97.8694 251.8048 0006965 142.7997 217.3704 14.89284072 81449
RLFL14                  
1 46268U 20060A   22060.76842161  .00002911  00000+0  18603-3 0  9992
2 46268  45.1082 305.7408 0010629  90.8589 269.3505 15.11044239 82787
CAPELLA-2-SEQUOIA       
1 46269U 20060B   22060.67482245  .00014143  00000+0  74512-3 0  9997
2 46269  45.1196 300.2382 0007033 116.4025 243.7580 15.15556958 82846
NUSAT-6 (HYPATIA)       
1 46272U 20061A   22060.96020828  .00003793  00000+0  16210-3 0  9999
2 46272  97.3425 134.2619 0008579  90.5477 269.6746 15.23424344 82855
ESAIL                   
1 46273U 20061B   22060.84654186  .00002657  00000+0  13890-3 0  9996
2 46273  97.4078 133.8123 0007201 134.4277 225.7546 15.16702511 82514
ION-MK01                
1 46274U 20061C   22060.76857477  .00002107  00000+0  11222-3 0  9993
2 46274  97.4074 133.6126 0007231 134.1471 226.0357 15.16266768 82498
ATHENA                  
1 46275U 20061D   22061.17737397  .00001573  00000+0  83358-4 0  9994
2 46275  97.4028 134.2762 0002119 127.2990 232.8436 15.16823916 82598
UPMSAT-2                
1 46276U 20061E   22060.83999698  .00002206  00000+0  11418-3 0  9992
2 46276  97.4036 134.1377 0002010 137.3674 222.7716 15.17245505 82558
NEMO-HD                 
1 46277U 20061F   22061.22211308  .00001262  00000+0  67376-4 0  9998
2 46277  97.4034 134.4151 0001941 137.5014 307.3617 15.16900016 82602
GHGSAT-C1               
1 46278U 20061G   22060.91776837  .00002543  00000+0  12955-3 0  9992
2 46278  97.4067 134.4784 0000782 212.4436 147.6750 15.17676876 82589
SIMBA                   
1 46279U 20061H   22060.77499907  .00003184  00000+0  19088-3 0  9993
2 46279  97.4593 133.0922 0002742 276.3318  83.7600 15.11672496 82187
TRISAT                  
1 46280U 20061J   22060.86713854  .00003920  00000+0  23532-3 0  9992
2 46280  97.4577 133.0677 0002439 275.3196  84.7756 15.11488739 82205
PICASSO-BEL             
1 46281U 20061K   22060.74372899  .00005534  00000+0  32428-3 0  9997
2 46281  97.4593 133.2533 0002619 267.9629  92.1302 15.12187906 82219
FLOCK 4V-9              
1 46282U 20061L   22060.79796284  .00004081  00000+0  24006-3 0  9990
2 46282  97.4601 133.3494 0002108 268.2728  91.8261 15.12201288 82214
FLOCK 4V-12             
1 46283U 20061M   22060.79323948  .00005672  00000+0  33135-3 0  9994
2 46283  97.4621 133.4361 0002043 267.0074  93.0923 15.12286820 82214
DIDO 3                  
1 46284U 20061N   22061.17456126  .00002371  00000+0  14447-3 0  9991
2 46284  97.4578 133.4096 0002112 265.7523  94.3466 15.11327635 82217
FLOCK 4V-11             
1 46285U 20061P   22060.78467761  .00002203  00000+0  13113-3 0  9998
2 46285  97.4597 133.3888 0002181 269.9089  90.1892 15.12248834 82217
FLOCK 4V-14             
1 46286U 20061Q   22060.90627389  .00005157  00000+0  30141-3 0  9998
2 46286  97.4599 133.5312 0001961 266.1137  93.9870 15.12315142 82238
AMICALSAT               
1 46287U 20061R   22060.74372466  .00003568  00000+0  21465-3 0  9997
2 46287  97.4584 133.0971 0001313 308.0855  52.0257 15.11464097 82196
FLOCK 4V-8              
1 46288U 20061S   22060.84397567  .00005501  00000+0  32033-3 0  9990
2 46288  97.4597 133.4510 0001276 297.5910  62.5191 15.12417089 82133
FLOCK 4V-6              
1 46289U 20061T   22060.76320325  .00002575  00000+0  15271-3 0  9993
2 46289  97.4601 133.4214 0001011 296.0672  64.0454 15.12238173 82210
FLOCK 4V-5              
1 46290U 20061U   22060.69012562  .00001933  00000+0  11592-3 0  9997
2 46290  97.4596 133.3410 0001245 305.2964  54.8150 15.12108694 82201
FLOCK 4V-7              
1 46291U 20061V   22060.74075382  .00006086  00000+0  35564-3 0  9992
2 46291  97.4603 133.4476 0000965 291.2940  68.8188 15.12251013 82109
3CAT-5A                 
1 46292U 20061W   22060.87147802  .00001701  00000+0  10544-3 0  9994
2 46292  97.4577 133.2039 0002233 223.7681 136.3372 15.11063221 82191
3CAT-5B                 
1 46293U 20061X   22060.76937628  .00001772  00000+0  10926-3 0  9998
2 46293  97.4575 133.1719 0002294 220.4885 139.6175 15.11214420 82153
OSM-1 CICERO            
1 46294U 20061Y   22060.85581745  .00002356  00000+0  14158-3 0  9994
2 46294  97.4584 133.5458 0002151 216.1906 143.9179 15.11838582 82216
TYVAK-0171              
1 46295U 20061Z   22060.78660307  .00005837  00000+0  33286-3 0  9999
2 46295  97.4633 133.9352 0002605 212.3257 147.7815 15.13146711 82161
FLOCK 4V-10             
1 46296U 20061AA  22061.15117937  .00002645  00000+0  15626-3 0  9990
2 46296  97.4603 134.0009 0001123 133.7014 226.4310 15.12347980 82245
FLOCK 4V-13             
1 46297U 20061AB  22060.87929703  .00002666  00000+0  15775-3 0  9999
2 46297  97.4605 133.7478 0001131 133.5935 226.5390 15.12283985 82189
LEMUR-2-ETHANOAKES      
1 46298U 20061AC  22060.72114570  .00007022  00000+0  38913-3 0  9992
2 46298  97.4621 134.2878 0001456 150.7011 209.4303 15.14105175 82195
LEMUR-2-OSCARLATOR      
1 46299U 20061AD  22060.72983435  .00007597  00000+0  42052-3 0  9993
2 46299  97.4623 134.2964 0001396 148.3772 211.7544 15.14118117 82221
SPACEBEE-21             
1 46300U 20061AE  22060.73388680  .00009853  00000+0  53122-3 0  9995
2 46300  97.4629 134.6212 0001543 150.2203 209.9117 15.14977220 82206
SPACEBEE-20             
1 46301U 20061AF  22060.73189061  .00009886  00000+0  53287-3 0  9996
2 46301  97.4646 134.6747 0001451 151.4165 208.7147 15.14984556 82207
SPACEBEE-15             
1 46302U 20061AG  22060.74246492  .00011085  00000+0  58971-3 0  9999
2 46302  97.4633 134.7668 0001444 147.6259 212.5062 15.15420445 82213
SPACEBEE-19             
1 46303U 20061AH  22060.77382999  .00009706  00000+0  52053-3 0  9998
2 46303  97.4631 134.7373 0001483 149.6309 210.5009 15.15168983 82211
SPACEBEE-18             
1 46304U 20061AJ  22061.17389639  .00008208  00000+0  44129-3 0  9993
2 46304  97.4628 135.1127 0001505 147.5949 212.5376 15.15132274 82271
SPACEBEE-10             
1 46305U 20061AK  22060.71575656  .00012233  00000+0  63669-3 0  9992
2 46305  97.4644 134.9896 0001473 152.6345 207.4966 15.16171814 82228
SPACEBEE-17             
1 46306U 20061AL  22060.74849330  .00011162  00000+0  59485-3 0  9990
2 46306  97.4633 134.7756 0001471 149.7644 210.3674 15.15357400 82255
SPACEBEE-11             
1 46307U 20061AM  22061.14567909  .00011115  00000+0  58358-3 0  9991
2 46307  97.4637 135.3252 0001466 152.1493 207.9818 15.15885784 82288
SPACEBEE-16             
1 46308U 20061AN  22060.67550374  .00011122  00000+0  59193-3 0  9993
2 46308  97.4638 134.7293 0001472 149.2666 210.8653 15.15404461 82205
